{
  "type": "FeatureCollection",
  "features": [
    {
      "type": "Feature",
      "properties": {
        "norad_id": 66440,
        "name": "STARLINK-35405",
        "group": "last-30-days",
        "lat": -20.765329231487947,
        "lon": 37.95645921705392,
        "alt_km": 444.23372175738314,
        "timestamp": "2025-12-10T05:46:12.574278+00:00",
        "meta_object_name": "STARLINK-35405",
        "meta_object_id": "2025-259U",
        "meta_epoch": "2025-12-09T20:00:01.999008",
        "meta_mean_motion": 15.4335211,
        "meta_eccentricity": 0.0001408,
        "meta_inclination": 43.0005,
        "meta_ra_of_asc_node": 64.3179,
        "meta_arg_of_pericenter": 260.4133,
        "meta_mean_anomaly": 325.5924,
        "meta_ephemeris_type": 0,
        "meta_classification_type": "U",
        "meta_norad_cat_id": 66440,
        "meta_element_set_no": 999,
        "meta_rev_at_epoch": 581,
        "meta_bstar": -0.062821,
        "meta_mean_motion_dot": -0.02532399,
        "meta_mean_motion_ddot": 0,
        "tle_line1": "1 66440U 25259U   25343.83335647 -.02532399  00000+0 -62821-1 0  9993",
        "tle_line2": "2 66440  43.0005  64.3179 0001408 260.4133 325.5924 15.43352110  5815"
      },
      "geometry": {
        "type": "Point",
        "coordinates": [
          37.95645921705392,
          -20.765329231487947
        ]
      }
    },
    {
      "type": "Feature",
      "properties": {
        "norad_id": 66441,
        "name": "STARLINK-35426",
        "group": "last-30-days",
        "lat": -13.622168979865764,
        "lon": 46.86578038877179,
        "alt_km": 439.3271522679315,
        "timestamp": "2025-12-10T05:46:12.574288+00:00",
        "meta_object_name": "STARLINK-35426",
        "meta_object_id": "2025-259V",
        "meta_epoch": "2025-12-09T20:00:01.999008",
        "meta_mean_motion": 15.44342515,
        "meta_eccentricity": 0.0001237,
        "meta_inclination": 43.0005,
        "meta_ra_of_asc_node": 64.2949,
        "meta_arg_of_pericenter": 278.3649,
        "meta_mean_anomaly": 316.9995,
        "meta_ephemeris_type": 0,
        "meta_classification_type": "U",
        "meta_norad_cat_id": 66441,
        "meta_element_set_no": 999,
        "meta_rev_at_epoch": 581,
        "meta_bstar": -0.048796,
        "meta_mean_motion_dot": -0.02047937,
        "meta_mean_motion_ddot": 0,
        "tle_line1": "1 66441U 25259V   25343.83335647 -.02047937  00000+0 -48796-1 0  9998",
        "tle_line2": "2 66441  43.0005  64.2949 0001237 278.3649 316.9995 15.44342515  5811"
      },
      "geometry": {
        "type": "Point",
        "coordinates": [
          46.86578038877179,
          -13.622168979865764
        ]
      }
    },
    {
      "type": "Feature",
      "properties": {
        "norad_id": 66442,
        "name": "STARLINK-34724",
        "group": "last-30-days",
        "lat": -7.069428208854556,
        "lon": 54.267738206438686,
        "alt_km": 434.9678042161013,
        "timestamp": "2025-12-10T05:46:12.574299+00:00",
        "meta_object_name": "STARLINK-34724",
        "meta_object_id": "2025-259W",
        "meta_epoch": "2025-12-09T20:00:01.999008",
        "meta_mean_motion": 15.4568523,
        "meta_eccentricity": 0.00012,
        "meta_inclination": 43.0003,
        "meta_ra_of_asc_node": 64.2762,
        "meta_arg_of_pericenter": 273.0208,
        "meta_mean_anomaly": 330.1949,
        "meta_ephemeris_type": 0,
        "meta_classification_type": "U",
        "meta_norad_cat_id": 66442,
        "meta_element_set_no": 999,
        "meta_rev_at_epoch": 581,
        "meta_bstar": -0.047089,
        "meta_mean_motion_dot": -0.02067612,
        "meta_mean_motion_ddot": 0,
        "tle_line1": "1 66442U 25259W   25343.83335647 -.02067612  00000+0 -47089-1 0  9995",
        "tle_line2": "2 66442  43.0003  64.2762 0001200 273.0208 330.1949 15.45685230  5818"
      },
      "geometry": {
        "type": "Point",
        "coordinates": [
          54.267738206438686,
          -7.069428208854556
        ]
      }
    },
    {
      "type": "Feature",
      "properties": {
        "norad_id": 66443,
        "name": "STARLINK-35219",
        "group": "last-30-days",
        "lat": 1.1709547088443928,
        "lon": 63.140781300559375,
        "alt_km": 420.35834394148605,
        "timestamp": "2025-12-10T05:46:12.574310+00:00",
        "meta_object_name": "STARLINK-35219",
        "meta_object_id": "2025-259X",
        "meta_epoch": "2025-12-09T14:16:46.881120",
        "meta_mean_motion": 15.48197708,
        "meta_eccentricity": 0.0002059,
        "meta_inclination": 42.9978,
        "meta_ra_of_asc_node": 65.6468,
        "meta_arg_of_pericenter": 318.8484,
        "meta_mean_anomaly": 41.222,
        "meta_ephemeris_type": 0,
        "meta_classification_type": "U",
        "meta_norad_cat_id": 66443,
        "meta_element_set_no": 999,
        "meta_rev_at_epoch": 557,
        "meta_bstar": 0.0008459,
        "meta_mean_motion_dot": 0.00045561,
        "meta_mean_motion_ddot": 0,
        "tle_line1": "1 66443U 25259X   25343.59498705  .00045561  00000+0  84590-3 0  9999",
        "tle_line2": "2 66443  42.9978  65.6468 0002059 318.8484  41.2220 15.48197708  5579"
      },
      "geometry": {
        "type": "Point",
        "coordinates": [
          63.140781300559375,
          1.1709547088443928
        ]
      }
    },
    {
      "type": "Feature",
      "properties": {
        "norad_id": 66444,
        "name": "STARLINK-35360",
        "group": "last-30-days",
        "lat": 10.73515752105155,
        "lon": 73.58664020259798,
        "alt_km": 413.0356744705323,
        "timestamp": "2025-12-10T05:46:12.574320+00:00",
        "meta_object_name": "STARLINK-35360",
        "meta_object_id": "2025-259Y",
        "meta_epoch": "2025-12-09T14:14:38.914944",
        "meta_mean_motion": 15.50671448,
        "meta_eccentricity": 0.0003008,
        "meta_inclination": 43.0004,
        "meta_ra_of_asc_node": 65.6336,
        "meta_arg_of_pericenter": 269.9974,
        "meta_mean_anomaly": 90.0542,
        "meta_ephemeris_type": 0,
        "meta_classification_type": "U",
        "meta_norad_cat_id": 66444,
        "meta_element_set_no": 999,
        "meta_rev_at_epoch": 568,
        "meta_bstar": 0.0018101,
        "meta_mean_motion_dot": 0.00107686,
        "meta_mean_motion_ddot": 0,
        "tle_line1": "1 66444U 25259Y   25343.59350596  .00107686  00000+0  18101-2 0  9996",
        "tle_line2": "2 66444  43.0004  65.6336 0003008 269.9974  90.0542 15.50671448  5683"
      },
      "geometry": {
        "type": "Point",
        "coordinates": [
          73.58664020259798,
          10.73515752105155
        ]
      }
    },
    {
      "type": "Feature",
      "properties": {
        "norad_id": 66445,
        "name": "STARLINK-34698",
        "group": "last-30-days",
        "lat": 3.384285605666645,
        "lon": 65.5141900536993,
        "alt_km": 426.166445236413,
        "timestamp": "2025-12-10T05:46:12.574352+00:00",
        "meta_object_name": "STARLINK-34698",
        "meta_object_id": "2025-259Z",
        "meta_epoch": "2025-12-09T20:00:01.999008",
        "meta_mean_motion": 15.48364463,
        "meta_eccentricity": 0.0001407,
        "meta_inclination": 43.0006,
        "meta_ra_of_asc_node": 64.246,
        "meta_arg_of_pericenter": 270.1163,
        "meta_mean_anomaly": 344.5443,
        "meta_ephemeris_type": 0,
        "meta_classification_type": "U",
        "meta_norad_cat_id": 66445,
        "meta_element_set_no": 999,
        "meta_rev_at_epoch": 570,
        "meta_bstar": -0.043514,
        "meta_mean_motion_dot": -0.02095293,
        "meta_mean_motion_ddot": 0,
        "tle_line1": "1 66445U 25259Z   25343.83335647 -.02095293  00000+0 -43514-1 0  9993",
        "tle_line2": "2 66445  43.0006  64.2460 0001407 270.1163 344.5443 15.48364463  5707"
      },
      "geometry": {
        "type": "Point",
        "coordinates": [
          65.5141900536993,
          3.384285605666645
        ]
      }
    },
    {
      "type": "Feature",
      "properties": {
        "norad_id": 66446,
        "name": "STARLINK-34986",
        "group": "last-30-days",
        "lat": 9.434706255086056,
        "lon": 72.1247195314692,
        "alt_km": 413.03539649895265,
        "timestamp": "2025-12-10T05:46:12.574365+00:00",
        "meta_object_name": "STARLINK-34986",
        "meta_object_id": "2025-259AA",
        "meta_epoch": "2025-12-09T14:15:08.032608",
        "meta_mean_motion": 15.5062385,
        "meta_eccentricity": 0.0002711,
        "meta_inclination": 42.9993,
        "meta_ra_of_asc_node": 65.636,
        "meta_arg_of_pericenter": 273.1662,
        "meta_mean_anomaly": 86.8888,
        "meta_ephemeris_type": 0,
        "meta_classification_type": "U",
        "meta_norad_cat_id": 66446,
        "meta_element_set_no": 999,
        "meta_rev_at_epoch": 568,
        "meta_bstar": 0.0023987,
        "meta_mean_motion_dot": 0.00143221,
        "meta_mean_motion_ddot": 0,
        "tle_line1": "1 66446U 25259AA  25343.59384297  .00143221  00000+0  23987-2 0  9996",
        "tle_line2": "2 66446  42.9993  65.6360 0002711 273.1662  86.8888 15.50623850  5688"
      },
      "geometry": {
        "type": "Point",
        "coordinates": [
          72.1247195314692,
          9.434706255086056
        ]
      }
    }
  ]
}